{
    "links": {
        "self": "http://www.neowsapp.com/rest/v1/neo/3583811?api_key=iIulBulltgU6a56xZRHN4H3l9WmuAYTsLGpBGhQ2"
    },
    "id": "3583811",
    "neo_reference_id": "3583811",
    "name": "(2011 UM169)",
    "designation": "2011 UM169",
    "nasa_jpl_url": "http://ssd.jpl.nasa.gov/sbdb.cgi?sstr=3583811",
    "absolute_magnitude_h": 25.0,
    "estimated_diameter": {
        "kilometers": {
            "estimated_diameter_min": 0.02658,
            "estimated_diameter_max": 0.0594346868
        },
        "meters": {
            "estimated_diameter_min": 26.58,
            "estimated_diameter_max": 59.4346868419
        },
        "miles": {
            "estimated_diameter_min": 0.0165160412,
            "estimated_diameter_max": 0.0369309908
        },
        "feet": {
            "estimated_diameter_min": 87.2047272,
            "estimated_diameter_max": 194.9956979785
        }
    },
    "is_potentially_hazardous_asteroid": false,
    "close_approach_data": [
        {
            "close_approach_date": "1929-06-10",
            "close_approach_date_full": "1929-Jun-10 15:05",
            "epoch_date_close_approach": -1279961700000,
            "relative_velocity": {
                "kilometers_per_second": "12.8651397493",
                "kilometers_per_hour": "46314.5030973832",
                "miles_per_hour": "28778.031105149"
            },
            "miss_distance": {
                "astronomical": "0.0851997501",
                "lunar": "33.1427027889",
                "kilometers": "12745701.139492287",
                "miles": "7919811.4415440806"
            },
            "orbiting_body": "Earth"
        },
        {
            "close_approach_date": "1969-03-10",
            "close_approach_date_full": "1969-Mar-10 17:01",
            "epoch_date_close_approach": -25599540000,
            "relative_velocity": {
                "kilometers_per_second": "11.9824274934",
                "kilometers_per_hour": "43136.7389760787",
                "miles_per_hour": "26803.4920598862"
            },
            "miss_distance": {
                "astronomical": "0.0396727191",
                "lunar": "15.4326877299",
                "kilometers": "5934954.274468317",
                "miles": "3687809.5801520946"
            },
            "orbiting_body": "Mars"
        },
        {
            "close_approach_date": "1969-05-20",
            "close_approach_date_full": "1969-May-20 13:04",
            "epoch_date_close_approach": -19479360000,
            "relative_velocity": {
                "kilometers_per_second": "22.8782753047",
                "kilometers_per_hour": "82361.7910970759",
                "miles_per_hour": "51176.4140291803"
            },
            "miss_distance": {
                "astronomical": "0.3226549894",
                "lunar": "125.5127908766",
                "kilometers": "48268499.159112578",
                "miles": "29992654.5995984564"
            },
            "orbiting_body": "Earth"
        },
        {
            "close_approach_date": "1971-11-09",
            "close_approach_date_full": "1971-Nov-09 06:15",
            "epoch_date_close_approach": 58515300000,
            "relative_velocity": {
                "kilometers_per_second": "22.4079575121",
                "kilometers_per_hour": "80668.647043546",
                "miles_per_hour": "50124.3601588078"
            },
            "miss_distance": {
                "astronomical": "0.2894763172",
                "lunar": "112.6062873908",
                "kilometers": "43305040.468564364",
                "miles": "26908504.3832376632"
            },
            "orbiting_body": "Earth"
        },
        {
            "close_approach_date": "2011-10-21",
            "close_approach_date_full": "2011-Oct-21 16:10",
            "epoch_date_close_approach": 1319213400000,
            "relative_velocity": {
                "kilometers_per_second": "13.4877390099",
                "kilometers_per_hour": "48555.8604356411",
                "miles_per_hour": "30170.723391246"
            },
            "miss_distance": {
                "astronomical": "0.0154289227",
                "lunar": "6.0018509303",
                "kilometers": "2308133.972314649",
                "miles": "1434207.9452901962"
            },
            "orbiting_body": "Earth"
        }
    ],
    "orbital_data": {
        "orbit_id": "10",
        "orbit_determination_date": "2017-04-06 08:52:11",
        "first_observation_date": "2011-10-26",
        "last_observation_date": "2011-11-03",
        "data_arc_in_days": 8,
        "observations_used": 40,
        "orbit_uncertainty": "8",
        "minimum_orbit_intersection": ".00357433",
        "jupiter_tisserand_invariant": "4.031",
        "epoch_osculation": "2455863.5",
        "eccentricity": ".5250894260260416",
        "semi_major_axis": "1.697953079072812",
        "inclination": "6.262094544955431",
        "ascending_node_longitude": "210.8646499701184",
        "orbital_period": "808.1406528808599",
        "perihelion_distance": ".8063758713633192",
        "perihelion_argument": "114.72327146",
        "aphelion_distance": "2.589530286782305",
        "perihelion_time": "2455812.779205350396",
        "mean_anomaly": "22.59444071866206",
        "mean_motion": ".4454670096309002",
        "equinox": "J2000",
        "orbit_class": {
            "orbit_class_type": "APO",
            "orbit_class_description": "Near-Earth asteroid orbits which cross the Earth’s orbit similar to that of 1862 Apollo",
            "orbit_class_range": "a (semi-major axis) > 1.0 AU; q (perihelion) < 1.017 AU"
        }
    },
    "is_sentry_object": false
}